0 SL-14 DEB
1 25204U 87068AF  13281.69732365  .00001466  00000-0  12173-2 0  5144
2 25204 082.4348 353.8264 0119316 038.0671 081.1878 13.84869626786020
0 SL-14 DEB
1 25204U 87068AF  13283.72068354  .00001552  00000-0  12901-2 0  5156
2 25204 082.4349 352.1926 0119152 032.2937 088.8377 13.84879429786308
0 SL-14 DEB
1 25204U 87068AF  13286.15867024  .00001656  00000-0  13774-2 0  5162
2 25204 082.4348 350.2243 0119003 025.3358 003.7231 13.84885881786644
0 SL-14 DEB
1 25204U 87068AF  13288.18624029  .00002165  00000-0  18043-2 0  5174
2 25204 082.4344 348.5873 0118892 019.5332 032.4879 13.84893844786927
0 SL-14 DEB
1 25204U 87068AF  13290.65638497  .00001976  00000-0  16458-2 0  5181
2 25204 082.4343 346.5925 0118834 012.4623 107.8641 13.84902962787267
0 SL-14 DEB
1 25204U 87068AF  13292.89598733  .00002131  00000-0  17762-2 0  5191
2 25204 082.4343 344.7840 0118775 006.0600 113.8926 13.84910616787573
0 SL-14 DEB
1 25204U 87068AF  13295.48604291  .00002189  00000-0  18243-2 0  5206
2 25204 082.4347 342.6923 0118784 358.6601 067.2609 13.84921229787935
